STARLINK-11589 [DTC]    
1 63311U 25057E   25210.58093965  .00164400  00000+0  12574-2 0  9993
2 63311  43.0016 169.7835 0001140 283.6476  76.4265 15.70880376 20929
STARLINK-11650 [DTC]    
1 63312U 25057F   25210.37517321  .00287234  00000+0  21623-2 0  9994
2 63312  42.9995 170.8122 0000893 264.0856  95.9910 15.70874831 22086
STARLINK-11648 [DTC]    
1 63313U 25057G   25210.37426163  .00254829  00000+0  19269-2 0  9995
2 63313  42.9991 170.8042 0000943 268.7229  91.3530 15.70867767 22050
STARLINK-11640 [DTC]    
1 63314U 25057H   25211.19553445  .00182417  00000+0  13850-2 0  9994
2 63314  42.9990 165.7783 0001226 217.9922 142.0860 15.70996763 21021
STARLINK-11652 [DTC]    
1 63315U 25057J   25210.23116393  .00141253  00000+0  10830-2 0  9994
2 63315  43.0010 171.4417 0002097 264.1064  95.9565 15.70898733 22064
STARLINK-11645 [DTC]    
1 63316U 25057K   25210.25240232  .00175973  00000+0  13439-2 0  9991
2 63316  43.0010 171.6129 0002161 267.1434  92.9186 15.70877542 22064
STARLINK-11633 [DTC]    
1 63317U 25057L   25210.58612686  .00277605  00000+0  20895-2 0  9993
2 63317  42.9983 168.9288 0000679  35.3069 324.7843 15.70907457 22074
STARLINK-11593 [DTC]    
1 63318U 25057M   25210.59673256  .00211142  00000+0  16017-2 0  9990
2 63318  42.9998 169.0124 0001818 291.1810  68.8864 15.70926305 22122
STARLINK-11588 [DTC]    
1 63319U 25057N   25210.86168800  .00261950  00000+0  19774-2 0  9990
2 63319  42.9996 167.5647 0001523 259.4503 100.6193 15.70886507 22009
STARLINK-33671          
1 63320U 25057P   25211.25002315 -.01640505  00000+0 -48340-1 0  9994
2 63320  43.0000 196.5766 0001714 267.9610 305.2350 15.37267914 21878
STARLINK-33650          
1 63321U 25057Q   25211.00722500  .00012971  00000+0  47980-3 0  9991
2 63321  42.9988 208.2157 0001284 270.2830  89.7874 15.27597114 21456
STARLINK-33689          
1 63322U 25057R   25210.99951161  .00018481  00000+0  67915-3 0  9998
2 63322  42.9979 208.1560 0001374 261.2196  98.8500 15.27593616 21729
STARLINK-33607          
1 63323U 25057S   25210.69445250  .00035768  00000+0  13023-2 0  9990
2 63323  42.9996 210.1722 0000193 265.4147  94.6683 15.27597573 21634
STARLINK-33619          
1 63324U 25057T   25210.99051656  .00018219  00000+0  66970-3 0  9999
2 63324  42.9994 208.0816 0001698 267.4853  92.5805 15.27592464 21727
STARLINK-33612          
1 63325U 25057U   25210.71884023  .00019547  00000+0  71751-3 0  9990
2 63325  42.9964 210.3557 0001728 272.5392  87.5262 15.27599735 21675
STARLINK-33672          
1 63326U 25057V   25211.00593588  .00034128  00000+0  12432-2 0  9999
2 63326  42.9965 208.1896 0000563 272.0917  87.9870 15.27601028 21726
