[{"OBJECT_NAME":"STARLINK-11589 [DTC]","OBJECT_ID":"2025-057E","EPOCH":"2025-07-29T13:56:33.185760","MEAN_MOTION":15.70880376,"ECCENTRICITY":0.000114,"INCLINATION":43.0016,"RA_OF_ASC_NODE":169.7835,"ARG_OF_PERICENTER":283.6476,"MEAN_ANOMALY":76.4265,"EPHEMERIS_TYPE":0,"CLASSIFICATION_TYPE":"U","NORAD_CAT_ID":63311,"ELEMENT_SET_NO":999,"REV_AT_EPOCH":2092,"BSTAR":0.0012574,"MEAN_MOTION_DOT":0.001644,"MEAN_MOTION_DDOT":0},{"OBJECT_NAME":"STARLINK-11650 [DTC]","OBJECT_ID":"2025-057F","EPOCH":"2025-07-29T09:00:14.965344","MEAN_MOTION":15.70874831,"ECCENTRICITY":8.93e-5,"INCLINATION":42.9995,"RA_OF_ASC_NODE":170.8122,"ARG_OF_PERICENTER":264.0856,"MEAN_ANOMALY":95.991,"EPHEMERIS_TYPE":0,"CLASSIFICATION_TYPE":"U","NORAD_CAT_ID":63312,"ELEMENT_SET_NO":999,"REV_AT_EPOCH":2208,"BSTAR":0.0021623,"MEAN_MOTION_DOT":0.00287234,"MEAN_MOTION_DDOT":0},{"OBJECT_NAME":"STARLINK-11648 [DTC]","OBJECT_ID":"2025-057G","EPOCH":"2025-07-29T08:58:56.204832","MEAN_MOTION":15.70867767,"ECCENTRICITY":9.43e-5,"INCLINATION":42.9991,"RA_OF_ASC_NODE":170.8042,"ARG_OF_PERICENTER":268.7229,"MEAN_ANOMALY":91.353,"EPHEMERIS_TYPE":0,"CLASSIFICATION_TYPE":"U","NORAD_CAT_ID":63313,"ELEMENT_SET_NO":999,"REV_AT_EPOCH":2205,"BSTAR":0.0019269,"MEAN_MOTION_DOT":0.00254829,"MEAN_MOTION_DDOT":0},{"OBJECT_NAME":"STARLINK-11640 [DTC]","OBJECT_ID":"2025-057H","EPOCH":"2025-07-30T04:41:34.176480","MEAN_MOTION":15.70996763,"ECCENTRICITY":0.0001226,"INCLINATION":42.999,"RA_OF_ASC_NODE":165.7783,"ARG_OF_PERICENTER":217.9922,"MEAN_ANOMALY":142.086,"EPHEMERIS_TYPE":0,"CLASSIFICATION_TYPE":"U","NORAD_CAT_ID":63314,"ELEMENT_SET_NO":999,"REV_AT_EPOCH":2102,"BSTAR":0.001385,"MEAN_MOTION_DOT":0.00182417,"MEAN_MOTION_DDOT":0},{"OBJECT_NAME":"STARLINK-11652 [DTC]","OBJECT_ID":"2025-057J","EPOCH":"2025-07-29T05:32:52.563552","MEAN_MOTION":15.70898733,"ECCENTRICITY":0.0002097,"INCLINATION":43.001,"RA_OF_ASC_NODE":171.4417,"ARG_OF_PERICENTER":264.1064,"MEAN_ANOMALY":95.9565,"EPHEMERIS_TYPE":0,"CLASSIFICATION_TYPE":"U","NORAD_CAT_ID":63315,"ELEMENT_SET_NO":999,"REV_AT_EPOCH":2206,"BSTAR":0.001083,"MEAN_MOTION_DOT":0.00141253,"MEAN_MOTION_DDOT":0},{"OBJECT_NAME":"STARLINK-11645 [DTC]","OBJECT_ID":"2025-057K","EPOCH":"2025-07-29T06:03:27.560448","MEAN_MOTION":15.70877542,"ECCENTRICITY":0.0002161,"INCLINATION":43.001,"RA_OF_ASC_NODE":171.6129,"ARG_OF_PERICENTER":267.1434,"MEAN_ANOMALY":92.9186,"EPHEMERIS_TYPE":0,"CLASSIFICATION_TYPE":"U","NORAD_CAT_ID":63316,"ELEMENT_SET_NO":999,"REV_AT_EPOCH":2206,"BSTAR":0.0013439,"MEAN_MOTION_DOT":0.00175973,"MEAN_MOTION_DDOT":0},{"OBJECT_NAME":"STARLINK-11633 [DTC]","OBJECT_ID":"2025-057L","EPOCH":"2025-07-29T14:04:01.360704","MEAN_MOTION":15.70907457,"ECCENTRICITY":6.79e-5,"INCLINATION":42.9983,"RA_OF_ASC_NODE":168.9288,"ARG_OF_PERICENTER":35.3069,"MEAN_ANOMALY":324.7843,"EPHEMERIS_TYPE":0,"CLASSIFICATION_TYPE":"U","NORAD_CAT_ID":63317,"ELEMENT_SET_NO":999,"REV_AT_EPOCH":2207,"BSTAR":0.0020895,"MEAN_MOTION_DOT":0.00277605,"MEAN_MOTION_DDOT":0},{"OBJECT_NAME":"STARLINK-11593 [DTC]","OBJECT_ID":"2025-057M","EPOCH":"2025-07-29T14:19:17.693184","MEAN_MOTION":15.70926305,"ECCENTRICITY":0.0001818,"INCLINATION":42.9998,"RA_OF_ASC_NODE":169.0124,"ARG_OF_PERICENTER":291.181,"MEAN_ANOMALY":68.8864,"EPHEMERIS_TYPE":0,"CLASSIFICATION_TYPE":"U","NORAD_CAT_ID":63318,"ELEMENT_SET_NO":999,"REV_AT_EPOCH":2212,"BSTAR":0.0016017,"MEAN_MOTION_DOT":0.00211142,"MEAN_MOTION_DDOT":0},{"OBJECT_NAME":"STARLINK-11588 [DTC]","OBJECT_ID":"2025-057N","EPOCH":"2025-07-29T20:40:49.843200","MEAN_MOTION":15.70886507,"ECCENTRICITY":0.0001523,"INCLINATION":42.9996,"RA_OF_ASC_NODE":167.5647,"ARG_OF_PERICENTER":259.4503,"MEAN_ANOMALY":100.6193,"EPHEMERIS_TYPE":0,"CLASSIFICATION_TYPE":"U","NORAD_CAT_ID":63319,"ELEMENT_SET_NO":999,"REV_AT_EPOCH":2200,"BSTAR":0.0019774,"MEAN_MOTION_DOT":0.0026195,"MEAN_MOTION_DDOT":0},{"OBJECT_NAME":"STARLINK-33671","OBJECT_ID":"2025-057P","EPOCH":"2025-07-30T06:00:02.000160","MEAN_MOTION":15.37267914,"ECCENTRICITY":0.0001714,"INCLINATION":43,"RA_OF_ASC_NODE":196.5766,"ARG_OF_PERICENTER":267.961,"MEAN_ANOMALY":305.235,"EPHEMERIS_TYPE":0,"CLASSIFICATION_TYPE":"U","NORAD_CAT_ID":63320,"ELEMENT_SET_NO":999,"REV_AT_EPOCH":2187,"BSTAR":-0.04834,"MEAN_MOTION_DOT":-0.01640505,"MEAN_MOTION_DDOT":0},{"OBJECT_NAME":"STARLINK-33650","OBJECT_ID":"2025-057Q","EPOCH":"2025-07-30T00:10:24.240000","MEAN_MOTION":15.27597114,"ECCENTRICITY":0.0001284,"INCLINATION":42.9988,"RA_OF_ASC_NODE":208.2157,"ARG_OF_PERICENTER":270.283,"MEAN_ANOMALY":89.7874,"EPHEMERIS_TYPE":0,"CLASSIFICATION_TYPE":"U","NORAD_CAT_ID":63321,"ELEMENT_SET_NO":999,"REV_AT_EPOCH":2145,"BSTAR":0.0004798,"MEAN_MOTION_DOT":0.00012971,"MEAN_MOTION_DDOT":0},{"OBJECT_NAME":"STARLINK-33689","OBJECT_ID":"2025-057R","EPOCH":"2025-07-29T23:59:17.803104","MEAN_MOTION":15.27593616,"ECCENTRICITY":0.0001374,"INCLINATION":42.9979,"RA_OF_ASC_NODE":208.156,"ARG_OF_PERICENTER":261.2196,"MEAN_ANOMALY":98.85,"EPHEMERIS_TYPE":0,"CLASSIFICATION_TYPE":"U","NORAD_CAT_ID":63322,"ELEMENT_SET_NO":999,"REV_AT_EPOCH":2172,"BSTAR":0.00067915,"MEAN_MOTION_DOT":0.00018481,"MEAN_MOTION_DDOT":0},{"OBJECT_NAME":"STARLINK-33607","OBJECT_ID":"2025-057S","EPOCH":"2025-07-29T16:40:00.696000","MEAN_MOTION":15.27597573,"ECCENTRICITY":1.93e-5,"INCLINATION":42.9996,"RA_OF_ASC_NODE":210.1722,"ARG_OF_PERICENTER":265.4147,"MEAN_ANOMALY":94.6683,"EPHEMERIS_TYPE":0,"CLASSIFICATION_TYPE":"U","NORAD_CAT_ID":63323,"ELEMENT_SET_NO":999,"REV_AT_EPOCH":2163,"BSTAR":0.0013023,"MEAN_MOTION_DOT":0.00035768,"MEAN_MOTION_DDOT":0},{"OBJECT_NAME":"STARLINK-33619","OBJECT_ID":"2025-057T","EPOCH":"2025-07-29T23:46:20.630784","MEAN_MOTION":15.27592464,"ECCENTRICITY":0.0001698,"INCLINATION":42.9994,"RA_OF_ASC_NODE":208.0816,"ARG_OF_PERICENTER":267.4853,"MEAN_ANOMALY":92.5805,"EPHEMERIS_TYPE":0,"CLASSIFICATION_TYPE":"U","NORAD_CAT_ID":63324,"ELEMENT_SET_NO":999,"REV_AT_EPOCH":2172,"BSTAR":0.0006697,"MEAN_MOTION_DOT":0.00018219,"MEAN_MOTION_DDOT":0},{"OBJECT_NAME":"STARLINK-33612","OBJECT_ID":"2025-057U","EPOCH":"2025-07-29T17:15:07.795872","MEAN_MOTION":15.27599735,"ECCENTRICITY":0.0001728,"INCLINATION":42.9964,"RA_OF_ASC_NODE":210.3557,"ARG_OF_PERICENTER":272.5392,"MEAN_ANOMALY":87.5262,"EPHEMERIS_TYPE":0,"CLASSIFICATION_TYPE":"U","NORAD_CAT_ID":63325,"ELEMENT_SET_NO":999,"REV_AT_EPOCH":2167,"BSTAR":0.00071751,"MEAN_MOTION_DOT":0.00019547,"MEAN_MOTION_DDOT":0},{"OBJECT_NAME":"STARLINK-33672","OBJECT_ID":"2025-057V","EPOCH":"2025-07-30T00:08:32.860032","MEAN_MOTION":15.27601028,"ECCENTRICITY":5.63e-5,"INCLINATION":42.9965,"RA_OF_ASC_NODE":208.1896,"ARG_OF_PERICENTER":272.0917,"MEAN_ANOMALY":87.987,"EPHEMERIS_TYPE":0,"CLASSIFICATION_TYPE":"U","NORAD_CAT_ID":63326,"ELEMENT_SET_NO":999,"REV_AT_EPOCH":2172,"BSTAR":0.0012432,"MEAN_MOTION_DOT":0.00034128,"MEAN_MOTION_DDOT":0}]
